{"fetched_at":"2026-03-29T16:36:15Z","count":15609,"tles":[{"name":"STARLINK-4810","line1":"1 53869U 22114BD  26087.74624393  .00000198  00000+0  30511-4 0  9993","line2":"2 53869  53.2166 188.2401 0001253  90.1048 270.0087 15.08844698196130","category":"Starlink"}]}